{
  "type": "FeatureCollection",
  "features": [
    {
      "type": "Feature",
      "properties": {
        "norad_id": 27954,
        "name": "GALAXY 13 (HORIZONS-1)",
        "group": "intelsat",
        "lat": 0.46319869452596385,
        "lon": -123.01481407038327,
        "alt_km": 35778.06578306911,
        "timestamp": "2025-12-27T19:21:58.441832+00:00",
        "meta_object_name": "GALAXY 13 (HORIZONS-1)",
        "meta_object_id": "2003-044A",
        "meta_epoch": "2025-12-27T10:34:34.255200",
        "meta_mean_motion": 1.00272925,
        "meta_eccentricity": 0.0002286,
        "meta_inclination": 0.9749,
        "meta_ra_of_asc_node": 86.2819,
        "meta_arg_of_pericenter": 189.0112,
        "meta_mean_anomaly": 189.4975,
        "meta_ephemeris_type": 0,
        "meta_classification_type": "U",
        "meta_norad_cat_id": 27954,
        "meta_element_set_no": 999,
        "meta_rev_at_epoch": 4485,
        "meta_bstar": 0,
        "meta_mean_motion_dot": 1.55e-06,
        "meta_mean_motion_ddot": 0,
        "tle_line1": "1 27954U 03044A   25361.44067425  .00000155  00000+0  00000+0 0  9996",
        "tle_line2": "2 27954   0.9749  86.2819 0002286 189.0112 189.4975  1.00272925 44854"
      },
      "geometry": {
        "type": "Point",
        "coordinates": [
          -123.01481407038327,
          0.46319869452596385
        ]
      }
    },
    {
      "type": "Feature",
      "properties": {
        "norad_id": 28358,
        "name": "INTELSAT 10-02",
        "group": "intelsat",
        "lat": -0.004383995121315287,
        "lon": 26.07025496652552,
        "alt_km": 35785.89481227599,
        "timestamp": "2025-12-27T19:21:58.441844+00:00",
        "meta_object_name": "INTELSAT 10-02",
        "meta_object_id": "2004-022A",
        "meta_epoch": "2025-12-27T04:26:17.024064",
        "meta_mean_motion": 1.00270123,
        "meta_eccentricity": 0.0001282,
        "meta_inclination": 0.0163,
        "meta_ra_of_asc_node": 51.3497,
        "meta_arg_of_pericenter": 251.566,
        "meta_mean_anomaly": 218.6151,
        "meta_ephemeris_type": 0,
        "meta_classification_type": "U",
        "meta_norad_cat_id": 28358,
        "meta_element_set_no": 999,
        "meta_rev_at_epoch": 7883,
        "meta_bstar": 0,
        "meta_mean_motion_dot": 1.1e-07,
        "meta_mean_motion_ddot": 0,
        "tle_line1": "1 28358U 04022A   25361.18491926  .00000011  00000+0  00000+0 0  9991",
        "tle_line2": "2 28358   0.0163  51.3497 0001282 251.5660 218.6151  1.00270123 78831"
      },
      "geometry": {
        "type": "Point",
        "coordinates": [
          26.07025496652552,
          -0.004383995121315287
        ]
      }
    },
    {
      "type": "Feature",
      "properties": {
        "norad_id": 28626,
        "name": "XM-3 (RHYTHM)",
        "group": "intelsat",
        "lat": -0.029478648335771126,
        "lon": 69.70065610916873,
        "alt_km": 36158.278004605774,
        "timestamp": "2025-12-27T19:21:58.441856+00:00",
        "meta_object_name": "XM-3 (RHYTHM)",
        "meta_object_id": "2005-008A",
        "meta_epoch": "2025-12-27T11:29:58.948800",
        "meta_mean_motion": 0.98950766,
        "meta_eccentricity": 0.0002317,
        "meta_inclination": 0.2107,
        "meta_ra_of_asc_node": 82.3688,
        "meta_arg_of_pericenter": 270.4449,
        "meta_mean_anomaly": 320.1063,
        "meta_ephemeris_type": 0,
        "meta_classification_type": "U",
        "meta_norad_cat_id": 28626,
        "meta_element_set_no": 999,
        "meta_rev_at_epoch": 4089,
        "meta_bstar": 0,
        "meta_mean_motion_dot": 6.9e-07,
        "meta_mean_motion_ddot": 0,
        "tle_line1": "1 28626U 05008A   25361.47915450  .00000069  00000+0  00000+0 0  9992",
        "tle_line2": "2 28626   0.2107  82.3688 0002317 270.4449 320.1063  0.98950766 40890"
      },
      "geometry": {
        "type": "Point",
        "coordinates": [
          69.70065610916873,
          -0.029478648335771126
        ]
      }
    },
    {
      "type": "Feature",
      "properties": {
        "norad_id": 28659,
        "name": "DIRECTV 8",
        "group": "intelsat",
        "lat": -0.01978564176135135,
        "lon": -92.03493370979584,
        "alt_km": 35773.30104875368,
        "timestamp": "2025-12-27T19:21:58.441867+00:00",
        "meta_object_name": "DIRECTV 8",
        "meta_object_id": "2005-019A",
        "meta_epoch": "2025-12-27T10:43:25.907232",
        "meta_mean_motion": 1.00271631,
        "meta_eccentricity": 0.0003224,
        "meta_inclination": 0.0255,
        "meta_ra_of_asc_node": 282.5158,
        "meta_arg_of_pericenter": 5.6349,
        "meta_mean_anomaly": 209.8441,
        "meta_ephemeris_type": 0,
        "meta_classification_type": "U",
        "meta_norad_cat_id": 28659,
        "meta_element_set_no": 999,
        "meta_rev_at_epoch": 7535,
        "meta_bstar": 0,
        "meta_mean_motion_dot": 2.4e-07,
        "meta_mean_motion_ddot": 0,
        "tle_line1": "1 28659U 05019A   25361.44682763  .00000024  00000+0  00000+0 0  9996",
        "tle_line2": "2 28659   0.0255 282.5158 0003224   5.6349 209.8441  1.00271631 75352"
      },
      "geometry": {
        "type": "Point",
        "coordinates": [
          -92.03493370979584,
          -0.01978564176135135
        ]
      }
    },
    {
      "type": "Feature",
      "properties": {
        "norad_id": 28702,
        "name": "GALAXY 28 (G-28)",
        "group": "intelsat",
        "lat": -2.0896644309071766,
        "lon": -52.42950084145068,
        "alt_km": 35688.579112228785,
        "timestamp": "2025-12-27T19:21:58.441877+00:00",
        "meta_object_name": "GALAXY 28 (G-28)",
        "meta_object_id": "2005-022A",
        "meta_epoch": "2025-12-27T10:54:32.343264",
        "meta_mean_motion": 1.00599384,
        "meta_eccentricity": 0.0003395,
        "meta_inclination": 2.8575,
        "meta_ra_of_asc_node": 81.111,
        "meta_arg_of_pericenter": 162.0273,
        "meta_mean_anomaly": 296.8152,
        "meta_ephemeris_type": 0,
        "meta_classification_type": "U",
        "meta_norad_cat_id": 28702,
        "meta_element_set_no": 999,
        "meta_rev_at_epoch": 5025,
        "meta_bstar": 0,
        "meta_mean_motion_dot": -2.36e-06,
        "meta_mean_motion_ddot": 0,
        "tle_line1": "1 28702U 05022A   25361.45454101 -.00000236  00000+0  00000+0 0  9999",
        "tle_line2": "2 28702   2.8575  81.1110 0003395 162.0273 296.8152  1.00599384 50255"
      },
      "geometry": {
        "type": "Point",
        "coordinates": [
          -52.42950084145068,
          -2.0896644309071766
        ]
      }
    },
    {
      "type": "Feature",
      "properties": {
        "norad_id": 29236,
        "name": "GALAXY 16 (G-16)",
        "group": "intelsat",
        "lat": 0.011690768613709783,
        "lon": -71.9886443786188,
        "alt_km": 35774.83531960288,
        "timestamp": "2025-12-27T19:21:58.441888+00:00",
        "meta_object_name": "GALAXY 16 (G-16)",
        "meta_object_id": "2006-023A",
        "meta_epoch": "2025-12-27T10:49:10.357248",
        "meta_mean_motion": 1.00271255,
        "meta_eccentricity": 0.0002725,
        "meta_inclination": 0.0405,
        "meta_ra_of_asc_node": 200.8037,
        "meta_arg_of_pericenter": 78.6329,
        "meta_mean_anomaly": 240.0267,
        "meta_ephemeris_type": 0,
        "meta_classification_type": "U",
        "meta_norad_cat_id": 29236,
        "meta_element_set_no": 999,
        "meta_rev_at_epoch": 7125,
        "meta_bstar": 0,
        "meta_mean_motion_dot": -1.04e-06,
        "meta_mean_motion_ddot": 0,
        "tle_line1": "1 29236U 06023A   25361.45081432 -.00000104  00000+0  00000+0 0  9991",
        "tle_line2": "2 29236   0.0405 200.8037 0002725  78.6329 240.0267  1.00271255 71253"
      },
      "geometry": {
        "type": "Point",
        "coordinates": [
          -71.9886443786188,
          0.011690768613709783
        ]
      }
    },
    {
      "type": "Feature",
      "properties": {
        "norad_id": 29494,
        "name": "DIRECTV 9S",
        "group": "intelsat",
        "lat": -0.7836920370377995,
        "lon": -74.1932692322524,
        "alt_km": 35773.04866957401,
        "timestamp": "2025-12-27T19:21:58.441899+00:00",
        "meta_object_name": "DIRECTV 9S",
        "meta_object_id": "2006-043A",
        "meta_epoch": "2025-12-27T10:48:32.915808",
        "meta_mean_motion": 1.00271274,
        "meta_eccentricity": 0.0003149,
        "meta_inclination": 1.9762,
        "meta_ra_of_asc_node": 83.0517,
        "meta_arg_of_pericenter": 198.3499,
        "meta_mean_anomaly": 235.7124,
        "meta_ephemeris_type": 0,
        "meta_classification_type": "U",
        "meta_norad_cat_id": 29494,
        "meta_element_set_no": 999,
        "meta_rev_at_epoch": 4966,
        "meta_bstar": 0,
        "meta_mean_motion_dot": -9.2e-07,
        "meta_mean_motion_ddot": 0,
        "tle_line1": "1 29494U 06043A   25361.45038097 -.00000092  00000+0  00000+0 0  9994",
        "tle_line2": "2 29494   1.9762  83.0517 0003149 198.3499 235.7124  1.00271274 49662"
      },
      "geometry": {
        "type": "Point",
        "coordinates": [
          -74.1932692322524,
          -0.7836920370377995
        ]
      }
    }
  ]
}